start=new Date('2022-10-19T00:00:00.000Z').valueOf();
sats=[{"OBJECT_NAME":"STARLINK-1894","EPHEMERIS_TYPE":"0","EPOCH":"2022-10-18T18:40:25.730112","NORAD_CAT_ID":"46744","INCLINATION":"53.0539","PERIOD":"95.593","OBJECT_TYPE":"PAYLOAD","MEAN_MOTION_DOT":"0.00001926","CENTER_NAME":"EARTH","BSTAR":"0.00014822000000","GP_ID":"215527277","TIME_SYSTEM":"UTC","TLE_LINE1":"1 46744U 20074F   22291.77807558  .00001926  00000-0  14822-3 0  9999","MEAN_ELEMENT_THEORY":"SGP4","REV_AT_EPOCH":"11009","SITE":"AFETR","SEMIMAJOR_AXIS":"6925.384","MEAN_ANOMALY":"276.3456","TLE_LINE2":"2 46744  53.0539 118.8228 0001360  83.7688 276.3456 15.06388387110095","PERIAPSIS":"546.307","COUNTRY_CODE":"US","DECAY_DATE":null,"LAUNCH_DATE":"2020-10-24","ECCENTRICITY":"0.00013600","REF_FRAME":"TEME","APOAPSIS":"548.191","RCS_SIZE":"LARGE","MEAN_MOTION_DDOT":"0.0000000000000","RA_OF_ASC_NODE":"118.8228","ELEMENT_SET_NO":"999","FILE":"3621750","OBJECT_ID":"2020-074F","MEAN_MOTION":"15.06388387","CLASSIFICATION_TYPE":"U","ARG_OF_PERICENTER":"83.7688"},{"APOAPSIS":"342.568","RCS_SIZE":"LARGE","REF_FRAME":"TEME","RA_OF_ASC_NODE":"20.9578","MEAN_MOTION_DDOT":"0.0000000000000","ELEMENT_SET_NO":"999","FILE":"3621750","OBJECT_ID":"2020-074G","MEAN_MOTION":"15.76710593","CLASSIFICATION_TYPE":"U","ARG_OF_PERICENTER":"1.3099","MEAN_ANOMALY":"358.7931","COUNTRY_CODE":"US","TLE_LINE2":"2 46745  53.0495  20.9578 0004165   1.3099 358.7931 15.76710593111466","PERIAPSIS":"336.972","LAUNCH_DATE":"2020-10-24","DECAY_DATE":null,"ECCENTRICITY":"0.00041650","BSTAR":"0.00010086000000","TLE_LINE1":"1 46745U 20074G   22291.67343083  .00015875  00000-0  10086-3 0  9993","MEAN_ELEMENT_THEORY":"SGP4","REV_AT_EPOCH":"11146","GP_ID":"215525027","TIME_SYSTEM":"UTC","SITE":"AFETR","SEMIMAJOR_AXIS":"6717.905","EPHEMERIS_TYPE":"0","EPOCH":"2022-10-18T16:09:44.423712","OBJECT_NAME":"STARLINK-1898","NORAD_CAT_ID":"46745","INCLINATION":"53.0495","OBJECT_TYPE":"PAYLOAD","PERIOD":"91.329","MEAN_MOTION_DOT":"0.00015875","CENTER_NAME":"EARTH"},{"PERIOD":"95.592","OBJECT_TYPE":"PAYLOAD","CENTER_NAME":"EARTH","MEAN_MOTION_DOT":"0.00000644","OBJECT_NAME":"STARLINK-1905","EPOCH":"2022-10-18T19:03:00.436320","EPHEMERIS_TYPE":"0","INCLINATION":"53.0541","NORAD_CAT_ID":"46746","SITE":"AFETR","SEMIMAJOR_AXIS":"6925.358","BSTAR":"0.00006210200000","TIME_SYSTEM":"UTC","GP_ID":"215525777","REV_AT_EPOCH":"11009","MEAN_ELEMENT_THEORY":"SGP4","TLE_LINE1":"1 46746U 20074H   22291.79375505  .00000644  00000-0  62102-4 0  9996","DECAY_DATE":null,"LAUNCH_DATE":"2020-10-24","ECCENTRICITY":"0.00013430","MEAN_ANOMALY":"279.2919","PERIAPSIS":"546.293","TLE_LINE2":"2 46746  53.0541 118.7524 0001343  80.8222 279.2919 15.06397046110099","COUNTRY_CODE":"US","CLASSIFICATION_TYPE":"U","ELEMENT_SET_NO":"999","FILE":"3621750","OBJECT_ID":"2020-074H","MEAN_MOTION":"15.06397046","ARG_OF_PERICENTER":"80.8222","REF_FRAME":"TEME","APOAPSIS":"548.153","RCS_SIZE":"LARGE","MEAN_MOTION_DDOT":"0.0000000000000","RA_OF_ASC_NODE":"118.7524"},{"SITE":"AFETR","SEMIMAJOR_AXIS":"6925.356","BSTAR":"0.00008458200000","GP_ID":"215526517","TIME_SYSTEM":"UTC","TLE_LINE1":"1 46747U 20074J   22291.64262829  .00000979  00000-0  84582-4 0  9992","MEAN_ELEMENT_THEORY":"SGP4","REV_AT_EPOCH":"11007","OBJECT_TYPE":"PAYLOAD","PERIOD":"95.592","MEAN_MOTION_DOT":"0.00000979","CENTER_NAME":"EARTH","OBJECT_NAME":"STARLINK-1908","EPHEMERIS_TYPE":"0","EPOCH":"2022-10-18T15:25:23.084256","NORAD_CAT_ID":"46747","INCLINATION":"53.0526","FILE":"3621750","OBJECT_ID":"2020-074J","ELEMENT_SET_NO":"999","MEAN_MOTION":"15.06397671","CLASSIFICATION_TYPE":"U","ARG_OF_PERICENTER":"119.1213","REF_FRAME":"TEME","APOAPSIS":"548.199","RCS_SIZE":"LARGE","MEAN_MOTION_DDOT":"0.0000000000000","RA_OF_ASC_NODE":"119.4339","DECAY_DATE":null,"LAUNCH_DATE":"2020-10-24","ECCENTRICITY":"0.00014130","MEAN_ANOMALY":"240.9917","TLE_LINE2":"2 46747  53.0526 119.4339 0001413 119.1213 240.9917 15.06397671110074","PERIAPSIS":"546.242","COUNTRY_CODE":"US"},{"CLASSIFICATION_TYPE":"U","FILE":"3621750","ELEMENT_SET_NO":"999","MEAN_MOTION":"15.06388358","OBJECT_ID":"2020-074K","ARG_OF_PERICENTER":"111.0073","REF_FRAME":"TEME","APOAPSIS":"548.279","RCS_SIZE":"LARGE","MEAN_MOTION_DDOT":"0.0000000000000","RA_OF_ASC_NODE":"118.7985","DECAY_DATE":null,"LAUNCH_DATE":"2020-10-24","ECCENTRICITY":"0.00014870","MEAN_ANOMALY":"249.1075","PERIAPSIS":"546.219","TLE_LINE2":"2 46748  53.0543 118.7985 0001487 111.0073 249.1075 15.06388358110099","COUNTRY_CODE":"US","SITE":"AFETR","SEMIMAJOR_AXIS":"6925.384","BSTAR":"-0.00002197200000","TIME_SYSTEM":"UTC","GP_ID":"215526778","REV_AT_EPOCH":"11009","MEAN_ELEMENT_THEORY":"SGP4","TLE_LINE1":"1 46748U 20074K   22291.78270568 -.00000609  00000-0 -21972-4 0  9993","OBJECT_TYPE":"PAYLOAD","PERIOD":"95.593","CENTER_NAME":"EARTH","MEAN_MOTION_DOT":"-0.00000609","OBJECT_NAME":"STARLINK-1910","EPOCH":"2022-10-18T18:47:05.770752","EPHEMERIS_TYPE":"0","INCLINATION":"53.0543","NORAD_CAT_ID":"46748"},{"OBJECT_NAME":"STARLINK-1911","EPOCH":"2022-10-18T18:57:42.420384","EPHEMERIS_TYPE":"0","INCLINATION":"53.0537","NORAD_CAT_ID":"46749","OBJECT_TYPE":"PAYLOAD","PERIOD":"95.593","CENTER_NAME":"EARTH","MEAN_MOTION_DOT":"0.00000985","BSTAR":"0.00008502100000","TIME_SYSTEM":"UTC","GP_ID":"215525527","REV_AT_EPOCH":"11009","MEAN_ELEMENT_THEORY":"SGP4","TLE_LINE1":"1 46749U 20074L   22291.79007431  .00000985  00000-0  85021-4 0  9992","SITE":"AFETR","SEMIMAJOR_AXIS":"6925.381","MEAN_ANOMALY":"256.8284","PERIAPSIS":"546.242","TLE_LINE2":"2 46749  53.0537 118.7736 0001449 103.2867 256.8284 15.06389561110093","COUNTRY_CODE":"US","DECAY_DATE":null,"LAUNCH_DATE":"2020-10-24","ECCENTRICITY":"0.00014490","REF_FRAME":"TEME","RCS_SIZE":"LARGE","APOAPSIS":"548.249","MEAN_MOTION_DDOT":"0.0000000000000","RA_OF_ASC_NODE":"118.7736","CLASSIFICATION_TYPE":"U","FILE":"3621750","ELEMENT_SET_NO":"999","OBJECT_ID":"2020-074L","MEAN_MOTION":"15.06389561","ARG_OF_PERICENTER":"103.2867"},{"OBJECT_NAME":"STARLINK-1920","EPHEMERIS_TYPE":"0","EPOCH":"2022-10-18T18:52:23.803968","NORAD_CAT_ID":"46751","INCLINATION":"53.0549","OBJECT_TYPE":"PAYLOAD","PERIOD":"95.592","MEAN_MOTION_DOT":"0.00002201","CENTER_NAME":"EARTH","BSTAR":"0.00016659000000","GP_ID":"215526277","TIME_SYSTEM":"UTC","TLE_LINE1":"1 46751U 20074N   22291.78638662  .00002201  00000-0  16659-3 0  9993","MEAN_ELEMENT_THEORY":"SGP4","REV_AT_EPOCH":"11009","SITE":"AFETR","SEMIMAJOR_AXIS":"6925.355","MEAN_ANOMALY":"240.3589","TLE_LINE2":"2 46751  53.0549 118.7958 0001385 119.7538 240.3589 15.06397741110096","PERIAPSIS":"546.261","COUNTRY_CODE":"US","DECAY_DATE":null,"LAUNCH_DATE":"2020-10-24","ECCENTRICITY":"0.00013850","REF_FRAME":"TEME","APOAPSIS":"548.180","RCS_SIZE":"LARGE","MEAN_MOTION_DDOT":"0.0000000000000","RA_OF_ASC_NODE":"118.7958","OBJECT_ID":"2020-074N","FILE":"3621750","ELEMENT_SET_NO":"999","MEAN_MOTION":"15.06397741","CLASSIFICATION_TYPE":"U","ARG_OF_PERICENTER":"119.7538"},{"SEMIMAJOR_AXIS":"6925.356","SITE":"AFETR","TIME_SYSTEM":"UTC","GP_ID":"215526019","MEAN_ELEMENT_THEORY":"SGP4","REV_AT_EPOCH":"11009","TLE_LINE1":"1 46752U 20074P   22291.79744403  .00002492  00000-0  18617-3 0  9994","BSTAR":"0.00018617000000","MEAN_MOTION_DOT":"0.00002492","CENTER_NAME":"EARTH","OBJECT_TYPE":"PAYLOAD","PERIOD":"95.592","INCLINATION":"53.0557","NORAD_CAT_ID":"46752","OBJECT_NAME":"STARLINK-1921","EPOCH":"2022-10-18T19:08:19.164192","EPHEMERIS_TYPE":"0","ARG_OF_PERICENTER":"116.5798","CLASSIFICATION_TYPE":"U","FILE":"3621750","ELEMENT_SET_NO":"999","MEAN_MOTION":"15.06397631","OBJECT_ID":"2020-074P","MEAN_MOTION_DDOT":"0.0000000000000","RA_OF_ASC_NODE":"118.7351","REF_FRAME":"TEME","RCS_SIZE":"LARGE","APOAPSIS":"548.221","ECCENTRICITY":"0.00014440","DECAY_DATE":null,"LAUNCH_DATE":"2020-10-24","PERIAPSIS":"546.221","TLE_LINE2":"2 46752  53.0557 118.7351 0001444 116.5798 243.5339 15.06397631110098","COUNTRY_CODE":"US","MEAN_ANOMALY":"243.5339"},{"TLE_LINE2":"2 46753  53.0552 119.7816 0001258  90.1290 269.9843 15.06406552110060","PERIAPSIS":"546.322","COUNTRY_CODE":"US","MEAN_ANOMALY":"269.9843","ECCENTRICITY":"0.00012580","DECAY_DATE":null,"LAUNCH_DATE":"2020-10-24","MEAN_MOTION_DDOT":"0.0000000000000","RA_OF_ASC_NODE":"119.7816","REF_FRAME":"TEME","APOAPSIS":"548.065","RCS_SIZE":"LARGE","ARG_OF_PERICENTER":"90.1290","FILE":"3621750","OBJECT_ID":"2020-074Q","ELEMENT_SET_NO":"999","MEAN_MOTION":"15.06406552","CLASSIFICATION_TYPE":"U","NORAD_CAT_ID":"46753","INCLINATION":"53.0552","OBJECT_NAME":"STARLINK-1922","EPHEMERIS_TYPE":"0","EPOCH":"2022-10-18T13:33:55.926432","CENTER_NAME":"EARTH","MEAN_MOTION_DOT":"-0.00001203","PERIOD":"95.592","OBJECT_TYPE":"PAYLOAD","GP_ID":"215527278","TIME_SYSTEM":"UTC","TLE_LINE1":"1 46753U 20074Q   22291.56523063 -.00001203  00000-0 -61846-4 0  9991","REV_AT_EPOCH":"11006","MEAN_ELEMENT_THEORY":"SGP4","BSTAR":"-0.00006184600000","SEMIMAJOR_AXIS":"6925.328","SITE":"AFETR"},{"SEMIMAJOR_AXIS":"6925.363","SITE":"AFETR","TIME_SYSTEM":"UTC","GP_ID":"215495436","REV_AT_EPOCH":"10997","MEAN_ELEMENT_THEORY":"SGP4","TLE_LINE1":"1 46754U 20074R   22290.97547612  .00001039  00000-0  88631-4 0  9998","BSTAR":"0.00008863100000","CENTER_NAME":"EARTH","MEAN_MOTION_DOT":"0.00001039","OBJECT_TYPE":"PAYLOAD","PERIOD":"95.592","INCLINATION":"53.0545","NORAD_CAT_ID":"46754","OBJECT_NAME":"STARLINK-1923","EPOCH":"2022-10-17T23:24:41.136768","EPHEMERIS_TYPE":"0","ARG_OF_PERICENTER":"125.1101","CLASSIFICATION_TYPE":"U","ELEMENT_SET_NO":"999","FILE":"3621474","OBJECT_ID":"2020-074R","MEAN_MOTION":"15.06395423","MEAN_MOTION_DDOT":"0.0000000000000","RA_OF_ASC_NODE":"122.4165","REF_FRAME":"TEME","RCS_SIZE":"LARGE","APOAPSIS":"548.163","ECCENTRICITY":"0.00013500","DECAY_DATE":null,"LAUNCH_DATE":"2020-10-24","PERIAPSIS":"546.293","TLE_LINE2":"2 46754  53.0545 122.4165 0001350 125.1101 235.0014 15.06395423109970","COUNTRY_CODE":"US","MEAN_ANOMALY":"235.0014"}];
